CCSDS_OMM_VERS = 2.0
CREATION_DATE  = 
ORIGINATOR     = 

OBJECT_NAME    = STARLINK-35197
OBJECT_ID      = 2025-243S
CENTER_NAME    = EARTH
REF_FRAME      = TEME
TIME_SYSTEM    = UTC
MEAN_ELEMENT_THEORY = SGP/SGP4

EPOCH          = 2025-11-23T00:00:02.000160
MEAN_MOTION    = 15.49239044
ECCENTRICITY   = .0001191
INCLINATION    = 53.1593
RA_OF_ASC_NODE = 21.2082
ARG_OF_PERICENTER = 89.1504
MEAN_ANOMALY   = 268.2088

EPHEMERIS_TYPE = 0
CLASSIFICATION_TYPE = U
NORAD_CAT_ID   = 66193
ELEMENT_SET_NO = 999
REV_AT_EPOCH   = 541
BSTAR          = .18096E-2
MEAN_MOTION_DOT = .101256E-2
MEAN_MOTION_DDOT = 0

CCSDS_OMM_VERS = 2.0
CREATION_DATE  = 
ORIGINATOR     = 

OBJECT_NAME    = STARLINK-35374
OBJECT_ID      = 2025-243T
CENTER_NAME    = EARTH
REF_FRAME      = TEME
TIME_SYSTEM    = UTC
MEAN_ELEMENT_THEORY = SGP/SGP4

EPOCH          = 2025-11-23T00:00:02.000160
MEAN_MOTION    = 15.49244211
ECCENTRICITY   = .0001205
INCLINATION    = 53.1593
RA_OF_ASC_NODE = 21.2123
ARG_OF_PERICENTER = 98.1120
MEAN_ANOMALY   = 257.3233

EPHEMERIS_TYPE = 0
CLASSIFICATION_TYPE = U
NORAD_CAT_ID   = 66194
ELEMENT_SET_NO = 999
REV_AT_EPOCH   = 541
BSTAR          = .1777E-2
MEAN_MOTION_DOT = .99421E-3
MEAN_MOTION_DDOT = 0

CCSDS_OMM_VERS = 2.0
CREATION_DATE  = 
ORIGINATOR     = 

OBJECT_NAME    = STARLINK-34813
OBJECT_ID      = 2025-243U
CENTER_NAME    = EARTH
REF_FRAME      = TEME
TIME_SYSTEM    = UTC
MEAN_ELEMENT_THEORY = SGP/SGP4

EPOCH          = 2025-11-23T00:00:02.000160
MEAN_MOTION    = 15.49245597
ECCENTRICITY   = .0001231
INCLINATION    = 53.1593
RA_OF_ASC_NODE = 21.2168
ARG_OF_PERICENTER = 95.4860
MEAN_ANOMALY   = 258.0129

EPHEMERIS_TYPE = 0
CLASSIFICATION_TYPE = U
NORAD_CAT_ID   = 66195
ELEMENT_SET_NO = 999
REV_AT_EPOCH   = 541
BSTAR          = .25981E-2
MEAN_MOTION_DOT = .146457E-2
MEAN_MOTION_DDOT = 0

CCSDS_OMM_VERS = 2.0
CREATION_DATE  = 
ORIGINATOR     = 

OBJECT_NAME    = STARLINK-35409
OBJECT_ID      = 2025-243V
CENTER_NAME    = EARTH
REF_FRAME      = TEME
TIME_SYSTEM    = UTC
MEAN_ELEMENT_THEORY = SGP/SGP4

EPOCH          = 2025-11-23T00:00:02.000160
MEAN_MOTION    = 15.49235374
ECCENTRICITY   = .0001232
INCLINATION    = 53.1593
RA_OF_ASC_NODE = 21.2208
ARG_OF_PERICENTER = 96.9800
MEAN_ANOMALY   = 254.6373

EPHEMERIS_TYPE = 0
CLASSIFICATION_TYPE = U
NORAD_CAT_ID   = 66196
ELEMENT_SET_NO = 999
REV_AT_EPOCH   = 541
BSTAR          = .1923E-2
MEAN_MOTION_DOT = .107708E-2
MEAN_MOTION_DDOT = 0

CCSDS_OMM_VERS = 2.0
CREATION_DATE  = 
ORIGINATOR     = 

OBJECT_NAME    = STARLINK-35518
OBJECT_ID      = 2025-243X
CENTER_NAME    = EARTH
REF_FRAME      = TEME
TIME_SYSTEM    = UTC
MEAN_ELEMENT_THEORY = SGP/SGP4

EPOCH          = 2025-11-23T00:00:02.000160
MEAN_MOTION    = 15.49264359
ECCENTRICITY   = .0001059
INCLINATION    = 53.1593
RA_OF_ASC_NODE = 21.2290
ARG_OF_PERICENTER = 94.6388
MEAN_ANOMALY   = 253.1273

EPHEMERIS_TYPE = 0
CLASSIFICATION_TYPE = U
NORAD_CAT_ID   = 66197
ELEMENT_SET_NO = 999
REV_AT_EPOCH   = 541
BSTAR          = .10383E-2
MEAN_MOTION_DOT = .57635E-3
MEAN_MOTION_DDOT = 0

CCSDS_OMM_VERS = 2.0
CREATION_DATE  = 
ORIGINATOR     = 

OBJECT_NAME    = STARLINK-35259
OBJECT_ID      = 2025-243W
CENTER_NAME    = EARTH
REF_FRAME      = TEME
TIME_SYSTEM    = UTC
MEAN_ELEMENT_THEORY = SGP/SGP4

EPOCH          = 2025-11-23T04:00:03.000096
MEAN_MOTION    = 15.38197555
ECCENTRICITY   = .0001625
INCLINATION    = 53.1598
RA_OF_ASC_NODE = 20.4501
ARG_OF_PERICENTER = 73.5815
MEAN_ANOMALY   = 113.4573

EPHEMERIS_TYPE = 0
CLASSIFICATION_TYPE = U
NORAD_CAT_ID   = 66198
ELEMENT_SET_NO = 999
REV_AT_EPOCH   = 543
BSTAR          = -.5894E-1
MEAN_MOTION_DOT = -.2003015E-1
MEAN_MOTION_DDOT = 0

CCSDS_OMM_VERS = 2.0
CREATION_DATE  = 
ORIGINATOR     = 

OBJECT_NAME    = STARLINK-35509
OBJECT_ID      = 2025-243Y
CENTER_NAME    = EARTH
REF_FRAME      = TEME
TIME_SYSTEM    = UTC
MEAN_ELEMENT_THEORY = SGP/SGP4

EPOCH          = 2025-11-23T00:00:02.000160
MEAN_MOTION    = 15.49235169
ECCENTRICITY   = .0001307
INCLINATION    = 53.1595
RA_OF_ASC_NODE = 21.1442
ARG_OF_PERICENTER = 100.6003
MEAN_ANOMALY   = 287.4243

EPHEMERIS_TYPE = 0
CLASSIFICATION_TYPE = U
NORAD_CAT_ID   = 66199
ELEMENT_SET_NO = 999
REV_AT_EPOCH   = 541
BSTAR          = .20716E-2
MEAN_MOTION_DOT = .116193E-2
MEAN_MOTION_DDOT = 0

CCSDS_OMM_VERS = 2.0
CREATION_DATE  = 
ORIGINATOR     = 

OBJECT_NAME    = STARLINK-35551
OBJECT_ID      = 2025-243Z
CENTER_NAME    = EARTH
REF_FRAME      = TEME
TIME_SYSTEM    = UTC
MEAN_ELEMENT_THEORY = SGP/SGP4

EPOCH          = 2025-11-23T00:00:02.000160
MEAN_MOTION    = 15.49246744
ECCENTRICITY   = .000115
INCLINATION    = 53.1595
RA_OF_ASC_NODE = 21.1520
ARG_OF_PERICENTER = 97.2430
MEAN_ANOMALY   = 286.9417

EPHEMERIS_TYPE = 0
CLASSIFICATION_TYPE = U
NORAD_CAT_ID   = 66200
ELEMENT_SET_NO = 999
REV_AT_EPOCH   = 541
BSTAR          = .17519E-2
MEAN_MOTION_DOT = .98001E-3
MEAN_MOTION_DDOT = 0

CCSDS_OMM_VERS = 2.0
CREATION_DATE  = 
ORIGINATOR     = 

OBJECT_NAME    = STARLINK-35543
OBJECT_ID      = 2025-243AA
CENTER_NAME    = EARTH
REF_FRAME      = TEME
TIME_SYSTEM    = UTC
MEAN_ELEMENT_THEORY = SGP/SGP4

EPOCH          = 2025-11-23T00:00:02.000160
MEAN_MOTION    = 15.49240925
ECCENTRICITY   = .0001185
INCLINATION    = 53.1596
RA_OF_ASC_NODE = 21.1554
ARG_OF_PERICENTER = 100.8777
MEAN_ANOMALY   = 281.3973

EPHEMERIS_TYPE = 0
CLASSIFICATION_TYPE = U
NORAD_CAT_ID   = 66201
ELEMENT_SET_NO = 999
REV_AT_EPOCH   = 547
BSTAR          = .17666E-2
MEAN_MOTION_DOT = .98818E-3
MEAN_MOTION_DDOT = 0

CCSDS_OMM_VERS = 2.0
CREATION_DATE  = 
ORIGINATOR     = 

OBJECT_NAME    = STARLINK-35534
OBJECT_ID      = 2025-243AB
CENTER_NAME    = EARTH
REF_FRAME      = TEME
TIME_SYSTEM    = UTC
MEAN_ELEMENT_THEORY = SGP/SGP4

EPOCH          = 2025-11-23T00:00:02.000160
MEAN_MOTION    = 15.49297363
ECCENTRICITY   = .0001173
INCLINATION    = 53.1595
RA_OF_ASC_NODE = 21.1600
ARG_OF_PERICENTER = 89.4587
MEAN_ANOMALY   = 290.8734

EPHEMERIS_TYPE = 0
CLASSIFICATION_TYPE = U
NORAD_CAT_ID   = 66202
ELEMENT_SET_NO = 999
REV_AT_EPOCH   = 541
BSTAR          = .49125E-3
MEAN_MOTION_DOT = .26956E-3
MEAN_MOTION_DDOT = 0

CCSDS_OMM_VERS = 2.0
CREATION_DATE  = 
ORIGINATOR     = 

OBJECT_NAME    = STARLINK-35548
OBJECT_ID      = 2025-243AC
CENTER_NAME    = EARTH
REF_FRAME      = TEME
TIME_SYSTEM    = UTC
MEAN_ELEMENT_THEORY = SGP/SGP4

EPOCH          = 2025-11-23T00:00:02.000160
MEAN_MOTION    = 15.49308828
ECCENTRICITY   = .0001082
INCLINATION    = 53.1592
RA_OF_ASC_NODE = 21.1642
ARG_OF_PERICENTER = 97.6417
MEAN_ANOMALY   = 280.7699

EPHEMERIS_TYPE = 0
CLASSIFICATION_TYPE = U
NORAD_CAT_ID   = 66203
ELEMENT_SET_NO = 999
REV_AT_EPOCH   = 547
BSTAR          = .40727E-5
MEAN_MOTION_DOT = -.222E-5
MEAN_MOTION_DDOT = 0

CCSDS_OMM_VERS = 2.0
CREATION_DATE  = 
ORIGINATOR     = 

OBJECT_NAME    = STARLINK-35490
OBJECT_ID      = 2025-243AD
CENTER_NAME    = EARTH
REF_FRAME      = TEME
TIME_SYSTEM    = UTC
MEAN_ELEMENT_THEORY = SGP/SGP4

EPOCH          = 2025-11-23T00:00:02.000160
MEAN_MOTION    = 15.49195542
ECCENTRICITY   = .0001083
INCLINATION    = 53.1594
RA_OF_ASC_NODE = 21.1718
ARG_OF_PERICENTER = 125.4539
MEAN_ANOMALY   = 249.1098

EPHEMERIS_TYPE = 0
CLASSIFICATION_TYPE = U
NORAD_CAT_ID   = 66204
ELEMENT_SET_NO = 999
REV_AT_EPOCH   = 536
BSTAR          = -.41459E-1
MEAN_MOTION_DOT = -.2045784E-1
MEAN_MOTION_DDOT = 0

