STARLINK-35197          
1 66193U 25243S   25327.00002315  .00101256  00000+0  18096-2 0  9991
2 66193  53.1593  21.2082 0001191  89.1504 268.2088 15.49239044  5412
STARLINK-35374          
1 66194U 25243T   25327.00002315  .00099421  00000+0  17770-2 0  9990
2 66194  53.1593  21.2123 0001205  98.1120 257.3233 15.49244211  5412
STARLINK-34813          
1 66195U 25243U   25327.00002315  .00146457  00000+0  25981-2 0  9996
2 66195  53.1593  21.2168 0001231  95.4860 258.0129 15.49245597  5412
STARLINK-35409          
1 66196U 25243V   25327.00002315  .00107708  00000+0  19230-2 0  9993
2 66196  53.1593  21.2208 0001232  96.9800 254.6373 15.49235374  5414
STARLINK-35518          
1 66197U 25243X   25327.00002315  .00057635  00000+0  10383-2 0  9997
2 66197  53.1593  21.2290 0001059  94.6388 253.1273 15.49264359  5417
STARLINK-35259          
1 66198U 25243W   25327.16670139 -.02003015  00000+0 -58940-1 0  9997
2 66198  53.1598  20.4501 0001625  73.5815 113.4573 15.38197555  5433
STARLINK-35509          
1 66199U 25243Y   25327.00002315  .00116193  00000+0  20716-2 0  9995
2 66199  53.1595  21.1442 0001307 100.6003 287.4243 15.49235169  5411
STARLINK-35551          
1 66200U 25243Z   25327.00002315  .00098001  00000+0  17519-2 0  9992
2 66200  53.1595  21.1520 0001150  97.2430 286.9417 15.49246744  5410
STARLINK-35543          
1 66201U 25243AA  25327.00002315  .00098818  00000+0  17666-2 0  9992
2 66201  53.1596  21.1554 0001185 100.8777 281.3973 15.49240925  5479
STARLINK-35534          
1 66202U 25243AB  25327.00002315  .00026956  00000+0  49125-3 0  9993
2 66202  53.1595  21.1600 0001173  89.4587 290.8734 15.49297363  5411
STARLINK-35548          
1 66203U 25243AC  25327.00002315 -.00000222  00000+0  40727-5 0  9994
2 66203  53.1592  21.1642 0001082  97.6417 280.7699 15.49308828  5470
STARLINK-35490          
1 66204U 25243AD  25327.00002315 -.02045784  00000+0 -41459-1 0  9999
2 66204  53.1594  21.1718 0001083 125.4539 249.1098 15.49195542  5360
